TOMORROW-S2             
1 60485U 24149T   26068.75188364  .00008133  00000+0  27683-3 0  9990
2 60485  97.3857 150.0385 0001648 234.3331 125.7757 15.30674935 86869
STARLINK-33762          
1 63442U 25069K   26068.42762166  .00011321  00000+0  39408-3 0  9991
2 63442  53.1573 143.7692 0001241  65.4547 294.6583 15.30174607 53364
